{
  "id": 85764113,
  "type": "Feature",
  "properties": {
    "edtf:cessation":"uuuu",
    "edtf:inception":"uuuu",
    "geom:area":0.00248,
    "geom:area_square_m":25218419.533268,
    "geom:bbox":"-58.54240966794987,-34.72226691044987,-58.47396350863426,-34.58589844093008",
    "geom:latitude":-34.666258,
    "geom:longitude":-58.502763,
    "gn:country":"AR",
    "gn:fcode":"PPLX",
    "gn:latitude":-34.68333,
    "gn:longitude":-58.5,
    "gn:population":0,
    "iso:country":"AR",
    "lbl:latitude":-34.604034,
    "lbl:longitude":-58.487463,
    "lbl:max_zoom":18.0,
    "mps:latitude":-34.698486,
    "mps:longitude":-58.502578,
    "mz:hierarchy_label":1,
    "mz:is_current":-1,
    "mz:is_funky":1,
    "mz:is_hard_boundary":0,
    "mz:is_landuse_aoi":0,
    "mz:is_official":0,
    "mz:max_zoom":18.0,
    "mz:min_zoom":14.0,
    "mz:note":"???",
    "mz:tier_locality":4,
    "mz:tier_metro":1,
    "name:spa_x_preferred":[
        "Comandante L. Piedrabuena"
    ],
    "qs:gn_adm0_cc":"AR",
    "qs:gn_fcode":"PPLX",
    "qs:gn_local":3435910,
    "qs:gn_nam_loc":"Buenos Aires, Ciudad de Buenos Aires, AR",
    "qs:gn_namadm1":"01",
    "qs:gn_name":"Comandante L. Piedrabuena",
    "qs:local_max":20760,
    "qs:local_sum":172164,
    "qs:localhoods":70,
    "qs:name":"Comandante L. Piedrabuena",
    "qs:name_adm0":"Argentina",
    "qs:name_adm1":"Buenos Aires",
    "qs:name_adm2":"La Matanza",
    "qs:name_local":"Buenos Aires",
    "qs:photo_max":202,
    "qs:photo_sum":1098,
    "qs:placetype":"Suburb",
    "qs:quad_count":69,
    "qs:woe_adm0":23424747,
    "qs:woe_adm1":2344675,
    "qs:woe_adm2":20070598,
    "qs:woe_lau":0,
    "qs:woe_local":468739,
    "qs:woe_ver":"7.10.0",
    "qs_pg:aaroncc":"AR",
    "qs_pg:gn_country":"AR",
    "qs_pg:gn_fcode":"PPLX",
    "qs_pg:gn_id":3435281,
    "qs_pg:gn_pop":0,
    "qs_pg:name":"Comandante L. Piedrabuena",
    "qs_pg:name_adm0":"Argentina",
    "qs_pg:name_adm1":"Buenos Aires",
    "qs_pg:photos":544,
    "qs_pg:photos_1k":110,
    "qs_pg:photos_9k":2,
    "qs_pg:photos_9r":5,
    "qs_pg:photos_all":544,
    "qs_pg:photos_sr":7,
    "qs_pg:pop_sr":0,
    "qs_pg:qs_id":1199785,
    "qs_pg:qs_pg_placetype":"neighbourhood",
    "qs_pg:qs_pg_placetype_gp":"Suburb",
    "qs_pg:woe_adm0":23424747,
    "qs_pg:woe_id":330236,
    "src:geom":"quattroshapes",
    "src:geom_alt":[],
    "src:lbl_centroid":"mz",
    "wof:belongsto":[
        1109371865,
        102191577,
        85632505,
        421174285,
        85668081
    ],
    "wof:breaches":[],
    "wof:concordances":{
        "gn:id":3435281,
        "gp:id":330236,
        "qs_pg:id":1199785
    },
    "wof:country":"AR",
    "wof:geomhash":"1b5a04bb6a237b6dd6e7b04b67d9c087",
    "wof:hierarchy":[
        {
            "borough_id":1109371865,
            "continent_id":102191577,
            "country_id":85632505,
            "locality_id":421174285,
            "neighbourhood_id":85764113,
            "region_id":85668081
        }
    ],
    "wof:id":85764113,
    "wof:lang":[
        "spa"
    ],
    "wof:lastmodified":1764084641,
    "wof:name":"Comandante L. Piedrabuena",
    "wof:parent_id":1109371865,
    "wof:placetype":"neighbourhood",
    "wof:repo":"whosonfirst-data-admin-ar",
    "wof:superseded_by":[],
    "wof:supersedes":[
        1126066747
    ],
    "wof:tags":[]
},
  "bbox": [
    -58.54240966794987,
    -34.72226691044987,
    -58.47396350863426,
    -34.58589844093008
],
  "geometry": {"coordinates":[[[-58.49089045813865,-34.682085751654384],[-58.486911424155565,-34.67877990606325],[-58.49179291945481,-34.674225718974725],[-58.49620267361108,-34.67817269558759],[-58.49089045813865,-34.682085751654384]]],"type":"Polygon"}
}